{"type": "FeatureCollection", "features": [ {"type": "Feature", "properties": {"norad_id": 44543, "name": "BEIDOU-3 M23 (C45)", "group": "beidou", "lat": 31.903917001125198, "lon": -17.767507314001413, "alt_km": 21531.442318553607, "timestamp": "2025-12-20T05:41:50.295914+00:00", "meta": {"OBJECT_NAME": "BEIDOU-3 M23 (C45)", "OBJECT_ID": "2019-061B", "EPOCH": "2025-12-19T04:54:38.810304", "MEAN_MOTION": 1.86227724, "ECCENTRICITY": 0.0006055, "INCLINATION": 54.3992, "RA_OF_ASC_NODE": 188.7663, "ARG_OF_PERICENTER": 24.9207, "MEAN_ANOMALY": 142.055, "EPHEMERIS_TYPE": 0, "CLASSIFICATION_TYPE": "U", "NORAD_CAT_ID": 44543, "ELEMENT_SET_NO": 999, "REV_AT_EPOCH": 4244, "BSTAR": 0, "MEAN_MOTION_DOT": 1.04e-06, "MEAN_MOTION_DDOT": 0}, "tle": {"line1": "1 44543U 19061B   25353.20461586  .00000104  00000+0  00000+0 0  9990", "line2": "2 44543  54.3992 188.7663 0006055  24.9207 142.0550  1.86227724 42443"}}, "geometry": {"type": "Point", "coordinates": [-17.767507314001413, 31.903917001125198]}}, {"type": "Feature", "properties": {"norad_id": 44709, "name": "BEIDOU-3 IGSO-3 (C40)", "group": "beidou", "lat": 3.3864454663632038, "lon": -74.8343095195518, "alt_km": 35982.28320766975, "timestamp": "2025-12-20T05:41:50.295926+00:00", "meta": {"OBJECT_NAME": "BEIDOU-3 IGSO-3 (C40)", "OBJECT_ID": "2019-073A", "EPOCH": "2025-11-20T07:11:22.740000", "MEAN_MOTION": 1.00250097, "ECCENTRICITY": 0.0044538, "INCLINATION": 55.163, "RA_OF_ASC_NODE": 283.159, "ARG_OF_PERICENTER": 191.5856, "MEAN_ANOMALY": 168.2409, "EPHEMERIS_TYPE": 0, "CLASSIFICATION_TYPE": "U", "NORAD_CAT_ID": 44709, "ELEMENT_SET_NO": 999, "REV_AT_EPOCH": 2236, "BSTAR": 0, "MEAN_MOTION_DOT": -2.06e-06, "MEAN_MOTION_DDOT": 0}, "tle": {"line1": "1 44709U 19073A   25324.29956875 -.00000206  00000+0  00000+0 0  9998", "line2": "2 44709  55.1630 283.1590 0044538 191.5856 168.2409  1.00250097 22360"}}, "geometry": {"type": "Point", "coordinates": [-74.8343095195518, 3.3864454663632038]}}, {"type": "Feature", "properties": {"norad_id": 44793, "name": "BEIDOU-3 M22 (C44)", "group": "beidou", "lat": -20.938321810204286, "lon": -69.97415618890582, "alt_km": 21520.039002716687, "timestamp": "2025-12-20T05:41:50.295942+00:00", "meta": {"OBJECT_NAME": "BEIDOU-3 M22 (C44)", "OBJECT_ID": "2019-078A", "EPOCH": "2025-12-19T04:51:35.344224", "MEAN_MOTION": 1.86232161, "ECCENTRICITY": 0.0006038, "INCLINATION": 54.1023, "RA_OF_ASC_NODE": 306.1592, "ARG_OF_PERICENTER": 24.3104, "MEAN_ANOMALY": 335.7082, "EPHEMERIS_TYPE": 0, "CLASSIFICATION_TYPE": "U", "NORAD_CAT_ID": 44793, "ELEMENT_SET_NO": 999, "REV_AT_EPOCH": 4129, "BSTAR": 0, "MEAN_MOTION_DOT": -7.7e-07, "MEAN_MOTION_DDOT": 0}, "tle": {"line1": "1 44793U 19078A   25353.20249241 -.00000077  00000+0  00000+0 0  9997", "line2": "2 44793  54.1023 306.1592 0006038  24.3104 335.7082  1.86232161 41295"}}, "geometry": {"type": "Point", "coordinates": [-69.97415618890582, -20.938321810204286]}}, {"type": "Feature", "properties": {"norad_id": 44794, "name": "BEIDOU-3 M21 (C43)", "group": "beidou", "lat": -45.343290342212654, "lon": 173.2034928890155, "alt_km": 21541.005787832437, "timestamp": "2025-12-20T05:41:50.295953+00:00", "meta": {"OBJECT_NAME": "BEIDOU-3 M21 (C43)", "OBJECT_ID": "2019-078B", "EPOCH": "2025-12-16T15:43:55.727904", "MEAN_MOTION": 1.86227668, "ECCENTRICITY": 0.00041169, "INCLINATION": 54.078, "RA_OF_ASC_NODE": 306.2132, "ARG_OF_PERICENTER": 11.942, "MEAN_ANOMALY": 348.0544, "EPHEMERIS_TYPE": 0, "CLASSIFICATION_TYPE": "U", "NORAD_CAT_ID": 44794, "ELEMENT_SET_NO": 999, "REV_AT_EPOCH": 4125, "BSTAR": 0, "MEAN_MOTION_DOT": -9.5e-07, "MEAN_MOTION_DDOT": 0}, "tle": {"line1": "1 44794U 19078B   25350.65550611 -.00000095  00000+0  00000+0 0  9990", "line2": "2 44794  54.0780 306.2132 0004116  11.9420 348.0544  1.86227668 41256"}}, "geometry": {"type": "Point", "coordinates": [173.2034928890155, -45.343290342212654]}}, {"type": "Feature", "properties": {"norad_id": 44864, "name": "BEIDOU-3 M19 (C41)", "group": "beidou", "lat": 54.37824871347547, "lon": 136.62282301921647, "alt_km": 21566.813061629764, "timestamp": "2025-12-20T05:41:50.295965+00:00", "meta": {"OBJECT_NAME": "BEIDOU-3 M19 (C41)", "OBJECT_ID": "2019-090A", "EPOCH": "2025-12-19T16:54:49.288032", "MEAN_MOTION": 1.86231654, "ECCENTRICITY": 0.001828, "INCLINATION": 56.3986, "RA_OF_ASC_NODE": 68.7306, "ARG_OF_PERICENTER": 284.9962, "MEAN_ANOMALY": 155.1499, "EPHEMERIS_TYPE": 0, "CLASSIFICATION_TYPE": "U", "NORAD_CAT_ID": 44864, "ELEMENT_SET_NO": 999, "REV_AT_EPOCH": 4089, "BSTAR": 0, "MEAN_MOTION_DOT": -5e-07, "MEAN_MOTION_DDOT": 0}, "tle": {"line1": "1 44864U 19090A   25353.70473713 -.00000050  00000+0  00000+0 0  9999", "line2": "2 44864  56.3986  68.7306 0018280 284.9962 155.1499  1.86231654 40895"}}, "geometry": {"type": "Point", "coordinates": [136.62282301921647, 54.37824871347547]}}, {"type": "Feature", "properties": {"norad_id": 44865, "name": "BEIDOU-3 M20 (C42)", "group": "beidou", "lat": 11.008703881958656, "lon": -118.65507909827596, "alt_km": 21554.703108585338, "timestamp": "2025-12-20T05:41:50.295976+00:00", "meta": {"OBJECT_NAME": "BEIDOU-3 M20 (C42)", "OBJECT_ID": "2019-090B", "EPOCH": "2025-12-19T13:23:47.716224", "MEAN_MOTION": 1.86231656, "ECCENTRICITY": 0.0015458, "INCLINATION": 56.4001, "RA_OF_ASC_NODE": 68.7697, "ARG_OF_PERICENTER": 297.1258, "MEAN_ANOMALY": 134.3818, "EPHEMERIS_TYPE": 0, "CLASSIFICATION_TYPE": "U", "NORAD_CAT_ID": 44865, "ELEMENT_SET_NO": 999, "REV_AT_EPOCH": 4087, "BSTAR": 0, "MEAN_MOTION_DOT": -5.2e-07, "MEAN_MOTION_DDOT": 0}, "tle": {"line1": "1 44865U 19090B   25353.55819116 -.00000052  00000+0  00000+0 0  9996", "line2": "2 44865  56.4001  68.7697 0015458 297.1258 134.3818  1.86231656 40870"}}, "geometry": {"type": "Point", "coordinates": [-118.65507909827596, 11.008703881958656]}}, {"type": "Feature", "properties": {"norad_id": 45344, "name": "BEIDOU-3 G2 (C60)", "group": "beidou", "lat": -1.3009713433347838, "lon": -105.47761944711863, "alt_km": 35777.74398674608, "timestamp": "2025-12-20T05:41:50.295988+00:00", "meta": {"OBJECT_NAME": "BEIDOU-3 G2 (C60)", "OBJECT_ID": "2020-017A", "EPOCH": "2025-12-19T13:38:45.370752", "MEAN_MOTION": 1.00273166, "ECCENTRICITY": 0.0002079, "INCLINATION": 2.5096, "RA_OF_ASC_NODE": 44.0024, "ARG_OF_PERICENTER": 233.0917, "MEAN_ANOMALY": 96.0359, "EPHEMERIS_TYPE": 0, "CLASSIFICATION_TYPE": "U", "NORAD_CAT_ID": 45344, "ELEMENT_SET_NO": 999, "REV_AT_EPOCH": 2145, "BSTAR": 0, "MEAN_MOTION_DOT": -1.18e-06, "MEAN_MOTION_DDOT": 0}, "tle": {"line1": "1 45344U 20017A   25353.56858068 -.00000118  00000+0  00000+0 0  9993", "line2": "2 45344   2.5096  44.0024 0002079 233.0917  96.0359  1.00273166 21451"}}, "geometry": {"type": "Point", "coordinates": [-105.47761944711863, -1.3009713433347838]}}, {"type": "Feature", "properties": {"norad_id": 45807, "name": "BEIDOU-3 G3 (C61)", "group": "beidou", "lat": -1.2731327379935988, "lon": -74.98645826519976, "alt_km": 35787.12613274177, "timestamp": "2025-12-20T05:41:50.295999+00:00", "meta": {"OBJECT_NAME": "BEIDOU-3 G3 (C61)", "OBJECT_ID": "2020-040A", "EPOCH": "2025-12-19T15:57:04.317984", "MEAN_MOTION": 1.0027087, "ECCENTRICITY": 0.00064381, "INCLINATION": 2.0073, "RA_OF_ASC_NODE": 66.6426, "ARG_OF_PERICENTER": 309.3483, "MEAN_ANOMALY": 62.3662, "EPHEMERIS_TYPE": 0, "CLASSIFICATION_TYPE": "U", "NORAD_CAT_ID": 45807, "ELEMENT_SET_NO": 999, "REV_AT_EPOCH": 2027, "BSTAR": 0, "MEAN_MOTION_DOT": -3.31e-06, "MEAN_MOTION_DDOT": 0}, "tle": {"line1": "1 45807U 20040A   25353.66463331 -.00000331  00000+0  00000+0 0  9996", "line2": "2 45807   2.0073  66.6426 0006438 309.3483  62.3662  1.00270870 20270"}}, "geometry": {"type": "Point", "coordinates": [-74.98645826519976, -1.2731327379935988]}}, {"type": "Feature", "properties": {"norad_id": 56564, "name": "BEIDOU-3 G4 (C62)", "group": "beidou", "lat": 0.4150403050341184, "lon": -25.412226269856223, "alt_km": 35797.17359348174, "timestamp": "2025-12-20T05:41:50.296012+00:00", "meta": {"OBJECT_NAME": "BEIDOU-3 G4 (C62)", "OBJECT_ID": "2023-066A", "EPOCH": "2025-12-19T19:36:37.155744", "MEAN_MOTION": 1.00271581, "ECCENTRICITY": 0.00027289, "INCLINATION": 0.8001, "RA_OF_ASC_NODE": 302.5987, "ARG_OF_PERICENTER": 226.497, "MEAN_ANOMALY": 13.7807, "EPHEMERIS_TYPE": 0, "CLASSIFICATION_TYPE": "U", "NORAD_CAT_ID": 56564, "ELEMENT_SET_NO": 999, "REV_AT_EPOCH": 959, "BSTAR": 0, "MEAN_MOTION_DOT": -8.6e-07, "MEAN_MOTION_DDOT": 0}, "tle": {"line1": "1 56564U 23066A   25353.81709671 -.00000086  00000+0  00000+0 0  9993", "line2": "2 56564   0.8001 302.5987 0002728 226.4970  13.7807  1.00271581  9594"}}, "geometry": {"type": "Point", "coordinates": [-25.412226269856223, 0.4150403050341184]}}, {"type": "Feature", "properties": {"norad_id": 58654, "name": "BEIDOU-3 M28 (C50)", "group": "beidou", "lat": -7.419542317168001, "lon": -106.52237382686664, "alt_km": 21528.56176531553, "timestamp": "2025-12-20T05:41:50.296023+00:00", "meta": {"OBJECT_NAME": "BEIDOU-3 M28 (C50)", "OBJECT_ID": "2023-207A", "EPOCH": "2025-12-18T08:16:11.764704", "MEAN_MOTION": 1.86229821, "ECCENTRICITY": 0.00026501, "INCLINATION": 55.5892, "RA_OF_ASC_NODE": 68.4116, "ARG_OF_PERICENTER": 272.4264, "MEAN_ANOMALY": 87.5728, "EPHEMERIS_TYPE": 0, "CLASSIFICATION_TYPE": "U", "NORAD_CAT_ID": 58654, "ELEMENT_SET_NO": 999, "REV_AT_EPOCH": 1347, "BSTAR": 0, "MEAN_MOTION_DOT": -6.6e-07, "MEAN_MOTION_DDOT": 0}, "tle": {"line1": "1 58654U 23207A   25352.34458061 -.00000066  00000+0  00000+0 0  9991", "line2": "2 58654  55.5892  68.4116 0002650 272.4264  87.5728  1.86229821 13471"}}, "geometry": {"type": "Point", "coordinates": [-106.52237382686664, -7.419542317168001]}}]}